[{"OBJECT_NAME":"STARLINK-33648","OBJECT_ID":"2025-063J","EPOCH":"2026-03-09T22:18:15.885792","MEAN_MOTION":15.30220328,"ECCENTRICITY":0.00019281,"INCLINATION":53.1611,"RA_OF_ASC_NODE":51.5313,"ARG_OF_PERICENTER":90.1264,"MEAN_ANOMALY":269.9957,"EPHEMERIS_TYPE":0,"CLASSIFICATION_TYPE":"U","NORAD_CAT_ID":63371,"ELEMENT_SET_NO":999,"REV_AT_EPOCH":5479,"BSTAR":0.00093544102,"MEAN_MOTION_DOT":0.00027466,"MEAN_MOTION_DDOT":0},{"OBJECT_NAME":"CZ-2D R\/B","OBJECT_ID":"2022-004B","EPOCH":"2026-03-09T22:50:52.634112","MEAN_MOTION":14.60339325,"ECCENTRICITY":0.04874226,"INCLINATION":98.4783,"RA_OF_ASC_NODE":157.6846,"ARG_OF_PERICENTER":297.671,"MEAN_ANOMALY":57.5829,"EPHEMERIS_TYPE":0,"CLASSIFICATION_TYPE":"U","NORAD_CAT_ID":51103,"ELEMENT_SET_NO":999,"REV_AT_EPOCH":21718,"BSTAR":0.00037005679,"MEAN_MOTION_DOT":0.00010482,"MEAN_MOTION_DDOT":0}]
